YAOGAN-35 01A           
1 49390U 21101A   26068.78009532  .00012075  00000+0  47335-3 0  9995
2 49390  34.9903 183.8731 0005688 189.0601 171.0012 15.24952145241689
STARLINK-35600          
1 66510U 25263AB  26067.83128933  .00028253  00000+0  10327-2 0  9998
2 66510  43.0033 355.8857 0001377 246.7545 113.3161 15.27568302 18762
