[{"OBJECT_NAME":"YAOGAN-35 01A","OBJECT_ID":"2021-101A","EPOCH":"2026-03-09T18:43:20.235648","MEAN_MOTION":15.24952145,"ECCENTRICITY":0.00056881,"INCLINATION":34.9903,"RA_OF_ASC_NODE":183.8731,"ARG_OF_PERICENTER":189.0601,"MEAN_ANOMALY":171.0012,"EPHEMERIS_TYPE":0,"CLASSIFICATION_TYPE":"U","NORAD_CAT_ID":49390,"ELEMENT_SET_NO":999,"REV_AT_EPOCH":24168,"BSTAR":0.00047335489,"MEAN_MOTION_DOT":0.00012075,"MEAN_MOTION_DDOT":0},{"OBJECT_NAME":"STARLINK-35600","OBJECT_ID":"2025-263AB","EPOCH":"2026-03-08T19:57:03.398112","MEAN_MOTION":15.27568302,"ECCENTRICITY":0.00013774,"INCLINATION":43.0033,"RA_OF_ASC_NODE":355.8857,"ARG_OF_PERICENTER":246.7545,"MEAN_ANOMALY":113.3161,"EPHEMERIS_TYPE":0,"CLASSIFICATION_TYPE":"U","NORAD_CAT_ID":66510,"ELEMENT_SET_NO":999,"REV_AT_EPOCH":1876,"BSTAR":0.0010326504,"MEAN_MOTION_DOT":0.00028253,"MEAN_MOTION_DDOT":0}]
